
XJS A                   
1 43518U 18054A   25062.56168983  .00058333  00000+0  10128-2 0  9995
2 43518  35.0492 235.7507 0006609 353.4858   6.5779 15.49691343374522
PAKTES 1A               
1 43529U 18056A   25062.55244914  .00004138  00000+0  37494-3 0  9997
2 43529  98.0603 197.0450 0022105 231.5404 128.3833 14.95766207361483
PRSS 1                  
1 43530U 18056B   25062.54347009  .00001942  00000+0  25913-3 0  9990
2 43530  97.8343 137.2757 0001645  98.9736 261.1662 14.80705216358757
BEIDOU-2 IGSO-7         
1 43539U 18057A   25061.85397100 -.00000137  00000+0  00000+0 0  9992
2 43539  55.1592 167.1468 0085414 234.8503 178.2626  1.00288930 24406
TELSTAR 19V             
1 43562U 18059A   25062.53013877 -.00000283  00000+0  00000+0 0  9994
2 43562   0.0213 177.5194 0000497 327.0812 144.8023  1.00268657 24424
GSAT0221 (GALILEO 25)   
1 43564U 18060A   25062.03718543 -.00000090  00000+0  00000+0 0  9991
2 43564  57.2862 354.4951 0005577 303.4422  56.5121  1.70475213 41136
GSAT0222 (GALILEO 26)   
1 43565U 18060B   25059.32313957 -.00000082  00000+0  00000+0 0  9991
2 43565  57.2902 354.5708 0004208 282.3447  77.6114  1.70474977 41137
GSAT0219 (GALILEO 23)   
1 43566U 18060C   25060.13123374 -.00000084  00000+0  00000+0 0  9997
2 43566  57.2893 354.5507 0005051 310.5119  49.4489  1.70475233 41128
GSAT0220 (GALILEO 24)   
1 43567U 18060D   25062.11176882 -.00000090  00000+0  00000+0 0  9997
2 43567  57.2888 354.4975 0005572 300.6899  59.2630  1.70475060 41141
IRIDIUM 160             
1 43569U 18061A   25062.61123134 -.00000011  00000+0 -10820-4 0  9997
2 43569  86.3920 253.3884 0001997  96.6662 263.4761 14.34217376345921
IRIDIUM 166             
1 43570U 18061B   25062.56683319  .00000000  00000+0 -72365-5 0  9999
2 43570  86.3918 253.3638 0001900  79.3293 280.8117 14.34217391345946
IRIDIUM 158             
1 43571U 18061C   25062.60488930 -.00000025  00000+0 -16063-4 0  9997
2 43571  86.3919 253.3576 0002145  89.5573 270.5869 14.34217252345918
IRIDIUM 165             
1 43572U 18061D   25062.56049023 -.00000020  00000+0 -14290-4 0  9994
2 43572  86.3920 253.4135 0001753  89.2479 270.8918 14.34217308345931
IRIDIUM 155             
1 43573U 18061E   25062.59220125  .00000082  00000+0  22255-4 0  9998
2 43573  86.3913 253.2926 0002333  84.7849 275.3613 14.34218807345900
IRIDIUM 154             
1 43574U 18061F   25062.57317615 -.00000051  00000+0 -25192-4 0  9999
2 43574  86.3921 253.4110 0001866  90.3452 269.7958 14.34217010345959
IRIDIUM 163             
1 43575U 18061G   25062.55414816 -.00000022  00000+0 -14865-4 0  9992
2 43575  86.3918 253.3491 0002051  92.6801 267.4629 14.34217280345923
IRIDIUM 156             
1 43576U 18061H   25062.59854652 -.00000025  00000+0 -16146-4 0  9990
2 43576  86.3918 253.3373 0002124  79.9105 280.2330 14.34217313345928
IRIDIUM 164             
1 43577U 18061J   25062.57951787 -.00000043  00000+0 -22329-4 0  9996
2 43577  86.3920 253.3782 0001697  89.4973 270.6418 14.34217131345961
IRIDIUM 159             
1 43578U 18061K   25062.54780398  .00000036  00000+0  57691-5 0  9993
2 43578  86.3913 253.3379 0002003  96.4838 263.6586 14.34218062345924
BEIDOU-3 M5             
1 43581U 18062A   25061.12281831  .00000042  00000+0  00000+0 0  9992
2 43581  54.1094 198.3540 0001629 306.5389  53.4001  1.86228382 44841
BEIDOU-3 M6             
1 43582U 18062B   25062.06124739  .00000046  00000+0  00000+0 0  9994
2 43582  54.1089 198.3113 0006053  42.2299 317.7752  1.86229179 44868
GAOFEN-11 01            
1 43585U 18063A   25062.56424820  .00013836  00000+0  34537-3 0  9994
2 43585  97.1928 129.0290 0005537 252.3580 107.7063 15.40270962367557
TELKOM 4 (MERAH PUTIH)  
1 43587U 18064A   25062.61447468 -.00000348  00000+0  00000+0 0  9995
2 43587   0.0217 105.1947 0001915 273.2578 112.3659  1.00270697 24168
BEIDOU-3 M12            
1 43602U 18067A   25060.38520561  .00000037  00000+0  00000+0 0  9998
2 43602  54.2014 197.0734 0008125  36.0447 323.9618  1.86227695 44314
BEIDOU-3 M11            
1 43603U 18067B   25060.51895043  .00000038  00000+0  00000+0 0  9995
2 43603  54.1986 197.0335 0004663  31.0104 328.9696  1.86227159 44346
HAIYANG-1C              
1 43609U 18068A   25062.52023700  .00000369  00000+0  14744-3 0  9999
2 43609  98.5722 135.2291 0011086  54.9452 305.2771 14.34095034339626
TELSTAR 18V             
1 43611U 18069A   25062.57001685 -.00000297  00000+0  00000+0 0  9993
2 43611   0.0300 258.5721 0001803  81.2414 164.9607  1.00272376 23918
ICESAT-2                
1 43613U 18070A   25062.55839521  .00019342  00000+0  70067-3 0  9997
2 43613  91.9986 164.3971 0003965 174.7552 185.3739 15.28316808360586
SSTL S1-4               
1 43618U 18071A   25062.58109084  .00001509  00000+0  14037-3 0  9991
2 43618  97.5704 306.8020 0001354 298.7036  61.4049 14.95751569352571
NOVASAR 1               
1 43619U 18071B   25062.56393934  .00001579  00000+0  14487-3 0  9995
2 43619  97.5744 307.2253 0000179  13.4046 346.7180 14.96232114352561
BEIDOU-3 M13            
1 43622U 18072A   25062.08973859  .00000002  00000+0  00000+0 0  9999
2 43622  56.2099  78.2552 0008840 300.6244  59.3337  1.86231053 43880
BEIDOU-3 M14            
1 43623U 18072B   25062.49216966 -.00000001  00000+0  00000+0 0  9994
2 43623  56.2121  78.2354 0006304 320.3366  39.6603  1.86231022 43887
AZERSPACE 2 (IS-38)     
1 43632U 18074A   25062.55159822  .00000133  00000+0  00000+0 0  9995
2 43632   0.0188 153.5202 0001553 184.3293  67.3984  1.00270574 23726
HORIZONS-3E             
1 43633U 18074B   25062.57686659 -.00000035  00000+0  00000+0 0  9993
2 43633   0.0493 310.3665 0001112 342.8704 244.9851  1.00271440 23607
CENTISPACE-1 S1         
1 43636U 18075A   25062.57594102  .00001222  00000+0  26827-3 0  9995
2 43636  97.9254 103.7899 0009378 152.2091 207.9613 14.59204777341905
SAOCOM 1A               
1 43641U 18076A   25062.51995131  .00001121  00000+0  14737-3 0  9998
2 43641  97.8886 251.0118 0001387  86.6308 273.5064 14.82164987346385
YAOGAN-32 A             
1 43642U 18077A   25062.57971039  .00001618  00000+0  32973-3 0  9990
2 43642  97.9554 100.2771 0001300 106.5226 253.6119 14.62267319341044
YAOGAN-32 B             
1 43643U 18077B   25062.57958397  .00001609  00000+0  32785-3 0  9994
2 43643  97.9554 100.2368 0001384 105.7976 254.3379 14.62268382341038
BEIDOU-3 M16            
1 43647U 18078A   25062.11607220 -.00000060  00000+0  00000+0 0  9997
2 43647  54.5074 316.4482 0008218  20.8705 339.2173  1.86232145 43388
BEIDOU-3 M15            
1 43648U 18078B   25062.24529655 -.00000061  00000+0  00000+0 0  9998
2 43648  54.5030 316.4457 0005132  27.1683 332.9123  1.86232004 43402
AEHF-4 (USA 288)        
1 43651U 18079A   25062.52909620 -.00000277  00000+0  00000+0 0  9997
2 43651   1.5646 337.8596 0052069   6.6516 299.8311  1.00265372 23576
HAIYANG-2B              
1 43655U 18081A   25062.60401273  .00000006  00000+0  49079-4 0  9997
2 43655  99.3373  73.3294 0002038  90.5475 269.5911 13.79304824320054
COSMOS 2528             
1 43657U 18082A   25062.53873290 -.00000002  00000+0  52785-4 0  9999
2 43657  67.1489 141.6330 0007805 279.7755  80.2448 13.96662556324220
CFOSAT                  
1 43662U 18083A   25062.60525351  .00006384  00000+0  33020-3 0  9994
2 43662  97.3686  75.8943 0003771 103.9069 256.2584 15.16582327351128
GOSAT 2                 
1 43672U 18084B   25062.32774838  .00004485  00000+0  54166-3 0  9995
2 43672  97.8445 175.5144 0001424  91.0561 269.0816 14.84253140343713
KHALIFASAT              
1 43676U 18084F   25062.57361131  .00005256  00000+0  44679-3 0  9999
2 43676  98.0684 221.8004 0012909 223.2468 136.7741 14.98251504345222
TEN-KOH                 
1 43677U 18084G   25062.41618837  .00005943  00000+0  48705-3 0  9998
2 43677  98.0914 230.7616 0009868 230.9568 129.0776 14.99635854345524
DIWATA-2B               
1 43678U 18084H   25062.53042700  .00004170  00000+0  36317-3 0  9999
2 43678  98.0945 234.9950 0008115 251.5602 108.4737 14.97475307345709
STARS-AO                
1 43679U 18084J   25062.50018826  .00009928  00000+0  63036-3 0  9993
2 43679  98.0732 244.1757 0002386 336.3138  23.7979 15.09089049346281
AUTCUBE 2               
1 43681U 18084K   25062.48189627  .00007355  00000+0  52538-3 0  9998
2 43681  98.0806 239.8397 0009976 185.7095 174.4017 15.04781796346007
BEIDOU-3 G1             
1 43683U 18085A   25062.57036437 -.00000281  00000+0  00000+0 0  9996
2 43683   2.8385 100.9394 0002608 356.0495  49.9446  1.00272154 23346
COSMOS 2529 [GLONASS-M] 
1 43687U 18086A   25062.04499369  .00000058  00000+0  00000+0 0  9991
2 43687  64.2955 208.5090 0007507 257.3109 102.5721  2.13101910 49246
METOP-C                 
1 43689U 18087A   25062.59334748  .00000258  00000+0  13768-3 0  9994
2 43689  98.6869 124.3565 0002415  84.2251 275.9201 14.21515065327972
GSAT-29                 
1 43698U 18089A   25062.55350959  .00000082  00000+0  00000+0 0  9990
2 43698   0.0587 271.9089 0001904  46.7765  97.1430  1.00270334 23073
ES'HAIL 2               
1 43700U 18090A   25062.07405802  .00000141  00000+0  00000+0 0  9997
2 43700   0.0155 114.9366 0001336 252.7603 205.8454  1.00273308 22955
BEIDOU-3 M17            
1 43706U 18093A   25061.86212114  .00000046  00000+0  00000+0 0  9998
2 43706  54.1925 198.2864 0006740 291.1950  68.6907  1.86228077 42766
BEIDOU-3 M18            
1 43707U 18093B   25061.72536028  .00000045  00000+0  00000+0 0  9996
2 43707  54.1933 198.2828 0005747 333.7206  26.2071  1.86229527 42751
TIANZHI 1               
1 43710U 18094A   25062.56134735  .00047853  00000+0  54736-3 0  9990
2 43710  97.3487  91.8794 0006737  61.6941 298.4995 15.61994499350857
